[{"OBJECT_NAME":"STARLINK-30996","OBJECT_ID":"2024-038A","EPOCH":"2026-03-09T06:29:14.747712","MEAN_MOTION":15.27572837,"ECCENTRICITY":4.989e-5,"INCLINATION":43.0041,"RA_OF_ASC_NODE":29.4218,"ARG_OF_PERICENTER":228.237,"MEAN_ANOMALY":131.8439,"EPHEMERIS_TYPE":0,"CLASSIFICATION_TYPE":"U","NORAD_CAT_ID":59023,"ELEMENT_SET_NO":999,"REV_AT_EPOCH":11606,"BSTAR":-3.3911215e-5,"MEAN_MOTION_DOT":-1.195e-5,"MEAN_MOTION_DDOT":0},{"OBJECT_NAME":"OBJECT N","OBJECT_ID":"2019-093N","EPOCH":"2026-03-09T21:41:56.087232","MEAN_MOTION":15.29897693,"ECCENTRICITY":0.0006278,"INCLINATION":98.0505,"RA_OF_ASC_NODE":226.9456,"ARG_OF_PERICENTER":33.3806,"MEAN_ANOMALY":326.7828,"EPHEMERIS_TYPE":0,"CLASSIFICATION_TYPE":"U","NORAD_CAT_ID":44891,"ELEMENT_SET_NO":999,"REV_AT_EPOCH":33957,"BSTAR":0.0010567776,"MEAN_MOTION_DOT":0.00030617,"MEAN_MOTION_DDOT":0}]
